#dP2021  7 17  0  0  0.00000000     289 ORBIT IGS14 BHN ESOC                    
## 2166 518400.00000000   300.00000000 59412 0.0000000000000                    
+  115   G13G28G21G22G07G05G20G31G17G15G16G29G12G19G02G25G01                    
+        G30G24G27G06G09G03G32G26G08G10G04G18G23G14G11R09R20                    
+        R19R13R01R22R16R08R03R07R02R17R18R21R05R15R12R04R24                    
+        E11E12E19E18E14E26E24E30E08E09E01E02E07E03E04E05E21                    
+        E25E27E31E36E13E15E33C11C12C14C19C20C27C28C22C21C29                    
+        C30C23C24C26C25C32C33C35C34C36C37C46C45C44C43C41C42                    
+        C06C07C08C09C10C13C16C38C39C40J01J02J03  0  0  0  0                    
++         4  5  5  5  5  5  5  5  5  5  5  5  5  5  5  4  5                    
++         5  4  5  5  5  5  5  5  5  6  5  5  5  5  5  7  7                    
++         6  5  6  6  5  6  6  6  5  5  5  5  7  5  5  5  5                    
++         5  5  5  5  5  5  5  5  5  5  5  5  5  5  5  5  5                    
++         5  5  5  5  5  5  5  5  5  5  6  6  5  5  5  5  5                    
++         5  5  5  5  5  5  5  5  5  5  5  6  5  5  5  6  6                    
++         6  6  6  6  6  6  6  8  7  7  7  7  7  0  0  0  0                    
%c M  cc GPS ccc cccc cccc cccc cccc ccccc ccccc ccccc ccccc                    
%c cc cc ccc ccc cccc cccc cccc cccc ccccc ccccc ccccc ccccc                    
%f  0.0000000  0.000000000  0.00000000000  0.000000000000000                    
%f  0.0000000  0.000000000  0.00000000000  0.000000000000000                    
%i    0    0    0    0      0      0      0      0         0                    
%i    0    0    0    0      0      0      0      0         0                    
/* CCCCCCCCCCCCCCCCCCCCCCCCCCCCCCCCCCCCCCCCCCCCCCCCCCCCCCCCCCCCCCCCCCCCCCCCCCCCC
/* CCCCCCCCCCCCCCCCCCCCCCCCCCCCCCCCCCCCCCCCCCCCCCCCCCCCCCCCCCCCCCCCCCCCCCCCCCCCC
/* CCCCCCCCCCCCCCCCCCCCCCCCCCCCCCCCCCCCCCCCCCCCCCCCCCCCCCCCCCCCCCCCCCCCCCCCCCCCC
/* PCV:IGS14      OL/AL:EOT11A   NONE     YN ORB:CoN CLK:CoN                    
*  2021  7 17  2 10  0.00000000                                                 
PG13  22008.817547  13485.715003  -6707.841207    158.678582                    
PG28  -4127.198763  19759.711625  17907.992937    536.575060                    
PG21 -17437.735361  -7123.283651  19619.383004    131.705906                    
PG22 -18756.375160   1496.473207  18852.736239   -561.756727                    
PG07  -9002.838055  16286.791062 -18396.081562    204.101680                    
PG05  16983.659912   2563.116482 -20468.886865    -48.140799                    
PG20   8967.558257  13819.092813 -20906.265653    520.142581                    
PG31  -7333.688733 -25248.299274   -828.653719   -129.047342                    
PG17  -2622.350570  14799.771161  22325.741991    474.927874                    
PG15  26509.897224   3583.275802   -511.081239   -135.014062                    
PG16 -12167.780917  -9247.755296 -22001.927329   -358.307785                    
PG29  18732.508694  -6407.347063 -17783.553221   -381.358768                    
PG12  21457.761951  -6912.687049  13685.071570    -69.656514                    
PG19   7499.760099  16398.738332  19267.588042     27.281048                    
PG02  13790.697493  20966.344054  -7945.523404   -620.083615                    
PG25  19978.537410 -16660.565587   4325.994399    174.794570                    
PG01 -14813.526915    765.204141  21788.901199    626.005974                    
PG30   -612.718247  24659.530841  -9460.058294   -451.621961                    
PG24  17085.107548   3960.435958  19799.548415    176.878982                    
PG27 -21373.585325 -12409.165791 -10386.672313   -164.019168                    
PG06   6527.814972  25676.908815   1367.012612     41.210077                    
PG09 -17002.298199   9413.178765 -18176.285141   -355.738086                    
PG03 -21058.911225   8734.236787  13436.264082   -222.928094                    
PG32  -1440.193836 -15827.655988  21418.368284     13.661490                    
PG26  -3448.562665 -17665.829197 -19500.863947    111.462854                    
PG08 -26029.641164  -6064.029687   -352.674517    -29.071007                    
PG10   8424.907488 -21613.764907  12797.144892   -163.517717                    
PG04 -24594.413805    472.351034 -10089.837330   -202.494015                    
PG18   7181.709460 -18858.928480 -17241.269118    340.438229                    
PG23  16668.921768 -20533.024222   2046.818449     83.593405                    
PG14  -9120.488638  21345.452051  12866.710833     45.613598                    
PG11  11623.129050  22090.028754  -9096.964205     17.335588                    
PR09  11188.195530   1832.440002  22872.792350      3.286453                    
PR20  18542.836854  13098.270924 -11593.116568    -52.605731                    
PR19  13104.564834  20237.752987   8334.676882   -151.802307                    
PR13 -10678.648559  -2668.149693 -23020.533677    -57.822203                    
PR01  -7225.234248  -9334.681257  22613.118421     82.411957                    
PR22  -2491.018151 -15771.375143 -19946.443442   -123.042239                    
PR16   4070.159912  18158.611423  17493.317493    -18.018370                    
PR08   9415.686456 -12239.515764  20352.405038    -59.988699                    
PR03 -22852.473098   8994.245537  -6946.452303     39.634226                    
PR07  22464.738594  -9256.726350   7733.854560    -42.010836                    
PR02 -23324.408587    505.245864  10425.730824    486.328800                    
PR17 -11708.966833   2530.424094  22514.507834    441.705982                    
PR18   1604.146579  15134.635185  20462.147946     83.679061                    
PR21  10857.142601  -3469.582259 -22830.899398   -224.438353                    
PR05   8948.789641   8577.844418 -22277.765512     75.461091                    
PR15  -6696.227397  24598.731497    801.886837    102.641823                    
PR12  -2941.486093 -18910.168999 -16825.386672    245.915430                    
PR04  -9590.036929  12096.243049 -20280.229121     96.092674                    
PR24 -18884.693483 -12122.542918  12119.671230     50.751250                    
PE11    553.684307 -23936.008517 -17428.065832   5709.655320                    
PE12  14637.062003  -6942.380960 -24781.011954   5107.399671                    
PE19  27538.562553   7260.973903  -8062.366480    328.707263                    
PE18 -12079.576468  10713.374304  16877.935765  -1647.133068                    
PE14  18735.447968 -13874.228793 -22770.611536  -1502.831927                    
PE26  13799.810156  26182.970387   -622.466834   1570.725889                    
PE24  12503.028343 -26134.763360  -6031.026830  -1011.900134                    
PE30 -21196.028893  16351.048992 -12643.307073   2778.085061                    
PE08 -25790.105926   7363.441417 -12500.819551   5969.166103                    
PE09   7948.615428 -16058.915077  23570.955391   5597.945412                    
PE01  17508.312999   2564.707436  23734.743735  -1151.674710                    
PE02 -17576.477015  -2409.158408 -23692.153189    233.423262                    
PE07  -8205.290416  16115.847014 -23421.833180   -562.553254                    
PE03 -28394.372763  -5852.456959   5931.994199   -453.469452                    
PE04  26034.875210  -7109.637856  12173.650804   -814.915449                    
PE05 -14114.741581 -15583.579411  20838.540993   -264.622084                    
PE21   4436.212530  19750.845138  21599.196958   -676.655681                    
PE25  -4247.717145 -19899.213054 -21487.302776   -540.233739                    
PE27 -11763.854552  26278.230413   6889.282512    -77.284748                    
PE31  20939.679319 -17296.015275  11786.942490   -483.338177                    
PE36 -13405.710518 -26391.827336   -269.492224   -235.446484                    
PE13   -770.950546  23663.277735  17761.153739    419.114835                    
PE15 -14533.985728   6969.348088  24825.341438    803.094681                    
PE33  19705.471496  13782.892827 -17259.643989   -467.586586                    
PC11  21524.788239  17716.500657   1769.045299    461.963224                    
PC12   8040.190182  20233.836116  17496.801809    809.378189                    
PC14  16429.501146   8445.969178 -20910.926112    800.223862                    
PC19 -23261.451175  -1024.958861  15389.846205    911.739888                    
PC20  -8573.024819 -13459.239145  22905.653180   -843.110164                    
PC27   1751.514582 -17412.783314 -21762.663466    565.518362                    
PC28  18449.982607  -4001.357833 -20555.983160    -49.789313                    
PC22 -24948.235543  12389.540145  -1353.063618   -948.437470                    
PC21 -12038.615281  18457.711028 -17088.591894   -935.913056                    
PC29 -24690.702701 -10775.262265   7267.796380    420.454716                    
PC30 -16227.885539 -20055.170275 -10671.995741    474.260169                    
PC23  15247.701351 -13341.334978  19204.215764   -968.984793                    
PC24   5767.085900  24714.124219  11629.430937   -942.921690                    
PC26  -5383.065096  27034.590243  -4464.364724    877.679846                    
PC25  15371.919273   6972.189734  22224.135108   -884.799670                    
PC32  11935.404929 -18580.209217  17084.142235   -924.976171                    
PC33  23265.286382    932.192489 -15393.077686   -943.963803                    
PC35 -18612.643380   4350.619995  20331.892222   -183.812565                    
PC34  16766.660013  19942.681432   9955.207842   -626.473656                    
PC36 -15090.625988  -7743.150725 -22128.547659   -733.606389                    
PC37   6599.206868 -26574.225656   5370.055593   -864.703284                    
PC46  -6421.666960 -24058.496442 -12552.897076    175.531618                    
PC45 -15070.127172  13558.026293 -19174.260754    495.399859                    
PC44  -1460.762856  17437.302279  21718.565422    293.150411                    
PC43  24626.190100  11228.378353  -6769.755946   -824.803386                    
PC41  25011.355053 -12333.584098   1093.784916   -961.243930                    
PC42   7816.735724  13870.457835 -22876.307950   -920.414489                    
PC06  -9934.431609  22516.161359 -33733.172033    634.064899                    
PC07 -21740.646406  31542.545322  17252.597834    113.432257                    
PC08  -9521.725942  37955.287273  16283.364575   -905.577217                    
PC09   5413.103740  29171.496517 -29485.039920    368.330606                    
PC10 -10063.266770  31955.486208  25554.254167    -18.090454                    
PC13  -1811.396068  42062.424445   4238.357308    339.289647                    
PC16  -7173.124551  23528.593545 -34098.829359   -914.076019                    
PC38  -9054.684552  38665.809643  14385.636621    162.167258                    
PC39  -4879.136487  24265.305162 -34102.388048     32.390672                    
PC40 -18499.096935  27890.889647  25584.389997    181.194270                    
PJ01 -35126.187380  17677.820393 -10466.969891   -417.323222                    
PJ02 -26070.022881  31586.990169  -5292.311276     -0.835149                    
PJ03 -25212.249619  23428.959200  29413.189246     -0.208883                    
EOF                                                                             
